[{"OBJECT_NAME":"STARLINK-36169","OBJECT_ID":"2025-286E","EPOCH":"2026-03-09T04:30:38.209536","MEAN_MOTION":15.30198841,"ECCENTRICITY":9.387e-5,"INCLINATION":53.1599,"RA_OF_ASC_NODE":0.5231,"ARG_OF_PERICENTER":52.5724,"MEAN_ANOMALY":307.5362,"EPHEMERIS_TYPE":0,"CLASSIFICATION_TYPE":"U","NORAD_CAT_ID":66929,"ELEMENT_SET_NO":999,"REV_AT_EPOCH":1534,"BSTAR":0.0010794097,"MEAN_MOTION_DOT":0.00031745,"MEAN_MOTION_DDOT":0},{"OBJECT_NAME":"CZ-6A DEB","OBJECT_ID":"2022-151TQ","EPOCH":"2026-03-09T06:57:26.684352","MEAN_MOTION":15.22919125,"ECCENTRICITY":0.00409545,"INCLINATION":98.8216,"RA_OF_ASC_NODE":191.4692,"ARG_OF_PERICENTER":160.8215,"MEAN_ANOMALY":199.457,"EPHEMERIS_TYPE":0,"CLASSIFICATION_TYPE":"U","NORAD_CAT_ID":54975,"ELEMENT_SET_NO":999,"REV_AT_EPOCH":17711,"BSTAR":0.0066825196,"MEAN_MOTION_DOT":0.00163663,"MEAN_MOTION_DDOT":0}]
